[Satellite]
VERSION=1.1
NAME=STARLINK-5263
NICKNAME=STARLINK-5263
TLE1=1 54193U 22141AN  22321.58334491 -.00043736  00000+0 -30852-3 0  9994
TLE2=2 54193  53.2174  42.2332 0002906  13.1480 120.8216 15.73215604  1304
STATUS=0
